[{"OBJECT_NAME":"STARLINK-5963","OBJECT_ID":"2023-078P","EPOCH":"2026-03-09T22:36:37.292256","MEAN_MOTION":14.98325214,"ECCENTRICITY":0.00031842,"INCLINATION":69.9995,"RA_OF_ASC_NODE":343.6188,"ARG_OF_PERICENTER":270.1252,"MEAN_ANOMALY":89.9542,"EPHEMERIS_TYPE":0,"CLASSIFICATION_TYPE":"U","NORAD_CAT_ID":56780,"ELEMENT_SET_NO":999,"REV_AT_EPOCH":15272,"BSTAR":-7.7185968e-5,"MEAN_MOTION_DOT":-1.014e-5,"MEAN_MOTION_DDOT":0},{"OBJECT_NAME":"COSMOS 2251 DEB","OBJECT_ID":"1993-036ZW","EPOCH":"2026-03-09T08:08:26.165472","MEAN_MOTION":15.02749495,"ECCENTRICITY":0.00499096,"INCLINATION":74.0135,"RA_OF_ASC_NODE":183.9715,"ARG_OF_PERICENTER":290.3808,"MEAN_ANOMALY":69.2023,"EPHEMERIS_TYPE":0,"CLASSIFICATION_TYPE":"U","NORAD_CAT_ID":34752,"ELEMENT_SET_NO":999,"REV_AT_EPOCH":91149,"BSTAR":0.001245658,"MEAN_MOTION_DOT":0.00017109,"MEAN_MOTION_DDOT":0}]
